NORAD_CAT_ID,OBJECT_NAME,OBJECT_TYPE,EPOCH,MEAN_MOTION,ECCENTRICITY,INCLINATION,RA_OF_ASC_NODE,ARG_OF_PERICENTER,MEAN_ANOMALY,BSTAR,MEAN_MOTION_DOT,MEAN_MOTION_DDOT,TLE_LINE0,TLE_LINE1,TLE_LINE2,SEMIMAJOR_AXIS,PERIOD,APOGEE,PERIGEE,DECAYED
54075.0,STARLINK-5212,PAYLOAD,2024-02-23 09:11:48,15.08843573,0.0001554,53.2171,84.55,101.0409,259.0758,8.9506e-05,1.137e-05,0.0,0 STARLINK-5212,1 54075U 22136AA  24054.38319448  .00001137  00000-0  89506-4 0  9994,2 54075  53.2171  84.5500 0001554 101.0409 259.0758 15.08843573 74409,6917.869,95.437,540.81,538.659,0.0
54075.0,STARLINK-5212,PAYLOAD,2024-02-23 18:44:07,15.08837847,0.0001515,53.2172,82.766,101.1462,258.9701,7.7347e-05,9.43e-06,0.0,0 STARLINK-5212,1 54075U 22136AA  24054.78063906  .00000943  00000-0  77347-4 0  9997,2 54075  53.2172  82.7660 0001515 101.1462 258.9701 15.08837847 74463,6917.887,95.438,540.8,538.704,0.0
54075.0,STARLINK-5212,PAYLOAD,2024-02-24 10:37:58,15.08838384,0.0001468,53.217,79.7916,98.5415,261.5744,0.00010076,1.316e-05,0.0,0 STARLINK-5212,1 54075U 22136AA  24055.44304081  .00001316  00000-0  10076-3 0  9993,2 54075  53.2170  79.7916 0001468  98.5415 261.5744 15.08838384 75044,6917.885,95.438,540.766,538.735,0.0
54075.0,STARLINK-5212,PAYLOAD,2024-02-25 08:53:22,15.08845951,0.0001488,53.217,75.6282,96.9119,263.2042,5.9611e-05,6.61e-06,0.0,0 STARLINK-5212,1 54075U 22136AA  24056.37039661  .00000661  00000-0  59611-4 0  9996,2 54075  53.2170  75.6282 0001488  96.9119 263.2042 15.08845951 74700,6917.862,95.437,540.757,538.698,0.0
54075.0,STARLINK-5212,PAYLOAD,2024-02-25 18:25:41,15.08837409,0.0001554,53.2168,73.8425,86.4838,273.6332,0.00014074,1.952e-05,0.0,0 STARLINK-5212,1 54075U 22136AA  24056.76784076  .00001952  00000-0  14074-3 0  9993,2 54075  53.2168  73.8425 0001554  86.4838 273.6332 15.08837409 75248,6917.888,95.438,540.828,538.678,0.0
54075.0,STARLINK-5212,PAYLOAD,2024-02-26 07:08:46,15.08844352,0.0001725,53.2175,71.4648,78.7929,281.3257,9.0163e-05,1.147e-05,0.0,0 STARLINK-5212,1 54075U 22136AA  24057.29775790  .00001147  00000-0  90163-4 0  9995,2 54075  53.2175  71.4648 0001725  78.7929 281.3257 15.08844352 74844,6917.867,95.437,540.925,538.539,0.0
54075.0,STARLINK-5212,PAYLOAD,2024-02-27 10:10:19,15.08844737,0.0001654,53.217,66.4079,91.1268,268.9914,5.2005e-05,5.4e-06,0.0,0 STARLINK-5212,1 54075U 22136AA  24058.42383666  .00000540  00000-0  52005-4 0  9997,2 54075  53.2170  66.4079 0001654  91.1268 268.9914 15.08844737 75497,6917.866,95.437,540.875,538.587,0.0
54075.0,STARLINK-5212,PAYLOAD,2024-02-28 03:39:34,15.08837735,0.0001432,53.2152,63.1374,87.3518,272.7638,1.643e-05,-2.6e-07,0.0,0 STARLINK-5212,1 54075U 22136AA  24059.15248212 -.00000026  00000-0  16430-4 0  9997,2 54075  53.2152  63.1374 0001432  87.3518 272.7638 15.08837735 75607,6917.887,95.438,540.743,538.762,0.0
54075.0,STARLINK-5212,PAYLOAD,2024-02-28 10:01:06,15.08841646,0.0001589,53.2168,61.9461,98.6081,261.5091,7.3092e-05,8.75e-06,0.0,0 STARLINK-5212,1 54075U 22136AA  24059.41743757  .00000875  00000-0  73092-4 0  9998,2 54075  53.2168  61.9461 0001589  98.6081 261.5091 15.08841646 75166,6917.875,95.437,540.84,538.641,0.0
54075.0,STARLINK-5212,PAYLOAD,2024-02-29 05:05:44,15.08837996,0.0001503,53.2169,58.3773,97.0484,263.0679,1.0706e-05,-1.18e-06,0.0,0 STARLINK-5212,1 54075U 22136AA  24060.21232366 -.00000118  00000-0  10706-4 0  9991,2 54075  53.2169  58.3773 0001503  97.0484 263.0679 15.08837996 75767,6917.887,95.438,540.791,538.712,0.0
54075.0,STARLINK-5212,PAYLOAD,2024-02-29 06:41:07,15.08838124,0.0001531,53.2172,58.0797,92.6703,267.4464,4.9866e-05,5.06e-06,0.0,0 STARLINK-5212,1 54075U 22136AA  24060.27856247  .00000506  00000-0  49866-4 0  9996,2 54075  53.2172  58.0797 0001531  92.6703 267.4464 15.08838124 75292,6917.886,95.438,540.81,538.692,0.0
54075.0,STARLINK-5212,PAYLOAD,2024-02-29 22:34:59,15.08833097,0.0001456,53.2172,55.1086,91.8947,268.2212,5.8554e-05,6.44e-06,0.0,0 STARLINK-5212,1 54075U 22136AA  24060.94096723  .00000644  00000-0  58554-4 0  9992,2 54075  53.2172  55.1086 0001456  91.8947 268.2212 15.08833097 75393,6917.901,95.438,540.774,538.759,0.0
54075.0,STARLINK-5212,PAYLOAD,2024-03-01 06:31:54,15.08842032,0.0001489,53.2178,53.622,91.5554,268.5609,6.5727e-05,7.58e-06,0.0,0 STARLINK-5212,1 54075U 22136AA  24061.27216287  .00000758  00000-0  65727-4 0  9994,2 54075  53.2178  53.6220 0001489  91.5554 268.5609 15.08842032 75447,6917.874,95.437,540.769,538.709,0.0
54075.0,STARLINK-5212,PAYLOAD,2024-03-01 16:04:13,15.08839407,0.0001489,53.2177,51.8378,90.9941,269.1222,5.0972e-05,5.23e-06,0.0,0 STARLINK-5212,1 54075U 22136AA  24061.66960504  .00000523  00000-0  50972-4 0  9991,2 54075  53.2177  51.8378 0001489  90.9941 269.1222 15.08839407 75500,6917.882,95.438,540.777,538.717,0.0
54075.0,STARLINK-5212,PAYLOAD,2024-03-02 03:11:55,15.08837823,0.0001532,53.2179,49.7562,90.3708,269.746,6.0481e-05,6.75e-06,0.0,0 STARLINK-5212,1 54075U 22136AA  24062.13328701  .00000675  00000-0  60481-4 0  9995,2 54075  53.2179  49.7562 0001532  90.3708 269.7460 15.08837823 76058,6917.887,95.438,540.812,538.692,0.0
54075.0,STARLINK-5212,PAYLOAD,2024-03-02 04:47:19,15.0883863,0.0001536,53.218,49.4589,90.3308,269.786,6.7002e-05,7.78e-06,0.0,0 STARLINK-5212,1 54075U 22136AA  24062.19952676  .00000778  00000-0  67002-4 0  9995,2 54075  53.2180  49.4589 0001536  90.3308 269.7860 15.08838630 75584,6917.885,95.438,540.812,538.687,0.0
54075.0,STARLINK-5212,PAYLOAD,2024-03-03 04:38:06,15.08841762,0.0001459,53.2177,44.9971,89.7979,270.318,2.8933e-05,1.73e-06,0.0,0 STARLINK-5212,1 54075U 22136AA  24063.19312743  .00000173  00000-0  28933-4 0  9990,2 54075  53.2177  44.9971 0001459  89.7979 270.3180 15.08841762 76219,6917.875,95.437,540.749,538.731,0.0
54075.0,STARLINK-5212,PAYLOAD,2024-03-03 07:48:52,15.08844109,0.0001444,53.2177,44.4022,89.1403,270.9754,4.4635e-05,4.23e-06,0.0,0 STARLINK-5212,1 54075U 22136AA  24063.32560523  .00000423  00000-0  44635-4 0  9991,2 54075  53.2177  44.4022 0001444  89.1403 270.9754 15.08844109 75750,6917.868,95.437,540.732,538.734,0.0
54075.0,STARLINK-5212,PAYLOAD,2024-03-04 06:04:15,15.08853228,0.0001445,53.2182,40.2392,91.2882,268.8275,0.00017781,2.544e-05,0.0,0 STARLINK-5212,1 54075U 22136AA  24064.25295622  .00002544  00000-0  17781-3 0  9996,2 54075  53.2182  40.2392 0001445  91.2882 268.8275 15.08853228 76371,6917.84,95.437,540.705,538.705,0.0
54075.0,STARLINK-5212,PAYLOAD,2024-03-04 15:36:35,15.08838597,0.0001427,53.2188,38.4529,105.3398,254.7752,5.0661e-05,5.18e-06,0.0,0 STARLINK-5212,1 54075U 22136AA  24064.65040663  .00000518  00000-0  50661-4 0  9997,2 54075  53.2188  38.4529 0001427 105.3398 254.7752 15.08838597 76430,6917.885,95.438,540.737,538.762,0.0
54075.0,STARLINK-5212,PAYLOAD,2024-03-05 02:44:16,15.0884688,0.0001078,53.2187,36.3723,108.0128,252.0982,8.1965e-05,1.017e-05,0.0,0 STARLINK-5212,1 54075U 22136AA  24065.11407834  .00001017  00000-0  81965-4 0  9992,2 54075  53.2187  36.3723 0001078 108.0128 252.0982 15.08846880 76503,6917.859,95.437,540.47,538.979,0.0
54075.0,STARLINK-5212,PAYLOAD,2024-03-05 04:19:39,15.08853864,0.0001426,53.2186,36.0776,93.8954,266.2201,0.00012368,1.682e-05,0.0,0 STARLINK-5212,1 54075U 22136AA  24065.18031408  .00001682  00000-0  12368-3 0  9997,2 54075  53.2186  36.0776 0001426  93.8954 266.2201 15.08853864 76031,6917.838,95.437,540.689,538.717,0.0
54075.0,STARLINK-5212,PAYLOAD,2024-03-06 04:10:27,15.08832925,0.0001654,53.2198,31.6135,104.1167,256.0009,-5.658e-05,-1.188e-05,0.0,0 STARLINK-5212,1 54075U 22136AA  24066.17393156 -.00001188  00000-0 -56580-4 0  9996,2 54075  53.2198  31.6135 0001654 104.1167 256.0009 15.08832925 76666,6917.902,95.438,540.911,538.623,0.0
54075.0,STARLINK-5212,PAYLOAD,2024-03-06 07:21:13,15.0884124,0.0001676,53.2188,31.0186,108.2603,251.8572,-0.0001089,-2.021e-05,0.0,0 STARLINK-5212,1 54075U 22136AA  24066.30640771 -.00002021  00000-0 -10890-3 0  9999,2 54075  53.2188  31.0186 0001676 108.2603 251.8572 15.08841240 76207,6917.877,95.437,540.901,538.582,0.0
54075.0,STARLINK-5212,PAYLOAD,2024-03-07 07:12:00,15.08845167,0.0001894,53.2192,26.5571,116.5835,243.5352,-8.1774e-05,-1.59e-05,0.0,0 STARLINK-5212,1 54075U 22136AA  24067.30000694 -.00001590  00000-0 -81774-4 0  9994,2 54075  53.2192  26.5571 0001894 116.5835 243.5352 15.08845167 76352,6917.865,95.437,541.04,538.419,0.0
54075.0,STARLINK-5212,PAYLOAD,2024-03-08 02:16:38,15.08834166,0.0001867,53.2192,22.9885,113.2257,246.8932,0.00016387,2.32e-05,0.0,0 STARLINK-5212,1 54075U 22136AA  24068.09489147  .00002320  00000-0  16387-3 0  9992,2 54075  53.2192  22.9885 0001867 113.2257 246.8932 15.08834166 76955,6917.898,95.438,541.055,538.472,0.0
54075.0,STARLINK-5212,PAYLOAD,2024-03-08 03:52:01,15.08836835,0.0001797,53.219,22.691,112.3961,247.7221,0.00016467,2.333e-05,0.0,0 STARLINK-5212,1 54075U 22136AA  24068.16113035  .00002333  00000-0  16467-3 0  9993,2 54075  53.2190  22.6910 0001797 112.3961 247.7221 15.08836835 76487,6917.89,95.438,540.998,538.512,0.0
54075.0,STARLINK-5212,PAYLOAD,2024-03-08 21:21:16,15.08834935,0.0001765,53.2189,19.4221,107.772,252.3465,6.2291e-05,7.03e-06,0.0,0 STARLINK-5212,1 54075U 22136AA  24068.88977788  .00000703  00000-0  62291-4 0  9991,2 54075  53.2189  19.4221 0001765 107.7720 252.3465 15.08834935 76593,6917.896,95.438,540.982,538.54,0.0
54075.0,STARLINK-5212,PAYLOAD,2024-03-09 03:42:49,15.088298,0.0001647,53.2186,18.2329,105.6739,254.4435,-1.5786e-06,-3.13e-06,0.0,0 STARLINK-5212,1 54075U 22136AA  24069.15474356 -.00000313  00000-0 -15786-5 0  9992,2 54075  53.2186  18.2329 0001647 105.6739 254.4435 15.08829800 77116,6917.912,95.438,540.916,538.637,0.0
54075.0,STARLINK-5212,PAYLOAD,2024-03-09 13:15:08,15.08839273,0.0001555,53.219,16.4503,89.0153,271.1017,4.0937e-05,3.64e-06,0.0,0 STARLINK-5212,1 54075U 22136AA  24069.55217795  .00000364  00000-0  40937-4 0  9997,2 54075  53.2190  16.4503 0001555  89.0153 271.1017 15.08839273 76697,6917.883,95.438,540.823,538.672,0.0
